CSS (TIANHE)            
1 48274U 21035A   26195.89445800  .00001220  00000+0  20034-4 0  9994
2 48274  41.4689 153.6564 0002256 302.1088  57.9530 15.58084991297496
